NORAD_CAT_ID,OBJECT_NAME,OBJECT_TYPE,EPOCH,MEAN_MOTION,ECCENTRICITY,INCLINATION,RA_OF_ASC_NODE,ARG_OF_PERICENTER,MEAN_ANOMALY,BSTAR,MEAN_MOTION_DOT,MEAN_MOTION_DDOT,TLE_LINE0,TLE_LINE1,TLE_LINE2,SEMIMAJOR_AXIS,PERIOD,APOGEE,PERIGEE,DECAYED
51754.0,STARLINK-3457,PAYLOAD,2023-02-14 02:25:36,15.08858293,0.0001473,53.2142,295.1549,76.7978,283.3178,0.0011288,0.00017731,0.0,0 STARLINK-3457,1 51754U 22016AS  23045.10112013  .00017731  00000-0  11288-2 0  9997,2 51754  53.2142 295.1549 0001473  76.7978 283.3178 15.08858293 54689,6917.824,95.436,540.708,538.67,0.0
51754.0,STARLINK-3457,PAYLOAD,2023-02-14 16:44:05,15.08847606,0.000121,53.2146,292.4769,87.8558,272.2573,0.00053306,8.208e-05,0.0,0 STARLINK-3457,1 51754U 22016AS  23045.69728153  .00008208  00000-0  53306-3 0  9996,2 51754  53.2146 292.4769 0001210  87.8558 272.2573 15.08847606 55888,6917.857,95.437,540.559,538.885,0.0
51754.0,STARLINK-3457,PAYLOAD,2023-02-15 08:37:56,15.08842728,0.0001496,53.2149,289.5033,82.067,278.0492,0.0005556,8.566e-05,0.0,0 STARLINK-3457,1 51754U 22016AS  23046.35967874  .00008566  00000-0  55560-3 0  9996,2 51754  53.2149 289.5033 0001496  82.0670 278.0492 15.08842728 55985,6917.872,95.437,540.772,538.702,0.0
51754.0,STARLINK-3457,PAYLOAD,2023-02-15 21:21:01,15.0886329,0.0001634,53.2167,287.1259,94.7911,265.3267,0.00057188,8.831e-05,0.0,0 STARLINK-3457,1 51754U 22016AS  23046.88959815  .00008831  00000-0  57188-3 0  9993,2 51754  53.2167 287.1259 0001634  94.7911 265.3267 15.08863290 54953,6917.809,95.436,540.805,538.544,0.0
51754.0,STARLINK-3457,PAYLOAD,2023-02-16 08:28:42,15.08864358,0.0001422,53.2143,285.0429,64.7033,295.4107,0.00066169,0.00010265,0.0,0 STARLINK-3457,1 51754U 22016AS  23047.35327238  .00010265  00000-0  66169-3 0  9997,2 51754  53.2143 285.0429 0001422  64.7033 295.4107 15.08864358 55022,6917.806,95.436,540.655,538.687,0.0
51754.0,STARLINK-3457,PAYLOAD,2023-02-17 00:22:34,15.08835254,0.0001229,53.214,282.0712,85.1539,274.9594,-0.00016045,-2.84e-05,0.0,0 STARLINK-3457,1 51754U 22016AS  23048.01567664 -.00002840  00000-0 -16045-3 0  9990,2 51754  53.2140 282.0712 0001229  85.1539 274.9594 15.08835254 56233,6917.895,95.438,540.61,538.91,0.0
51754.0,STARLINK-3457,PAYLOAD,2023-02-17 08:19:30,15.08831929,0.0001093,53.2152,280.5837,87.015,273.0967,-0.00014459,-2.588e-05,0.0,0 STARLINK-3457,1 51754U 22016AS  23048.34687951 -.00002588  00000-0 -14459-3 0  9994,2 51754  53.2152 280.5837 0001093  87.0150 273.0967 15.08831929 55177,6917.905,95.438,540.526,539.014,0.0
51754.0,STARLINK-3457,PAYLOAD,2023-02-17 21:02:36,15.08827449,0.0001459,53.2147,278.2032,82.688,277.4278,-0.00017673,-3.099e-05,0.0,0 STARLINK-3457,1 51754U 22016AS  23048.87680722 -.00003099  00000-0 -17673-3 0  9990,2 51754  53.2147 278.2032 0001459  82.6880 277.4278 15.08827449 55253,6917.919,95.438,540.793,538.774,0.0
51754.0,STARLINK-3457,PAYLOAD,2023-02-17 22:37:59,15.08828217,0.0001483,53.2151,277.9057,82.5528,277.5633,-0.0001391,-2.5e-05,0.0,0 STARLINK-3457,1 51754U 22016AS  23048.94304759 -.00002500  00000-0 -13910-3 0  9997,2 51754  53.2151 277.9057 0001483  82.5528 277.5633 15.08828217 56370,6917.916,95.438,540.807,538.755,0.0
51754.0,STARLINK-3457,PAYLOAD,2023-02-18 14:31:50,15.08839014,0.0001482,53.2156,274.9325,82.843,277.273,0.00027377,4.072e-05,0.0,0 STARLINK-3457,1 51754U 22016AS  23049.60544731  .00004072  00000-0  27377-3 0  9993,2 51754  53.2156 274.9325 0001482  82.8430 277.2730 15.08839014 55364,6917.883,95.438,540.774,538.723,0.0
51754.0,STARLINK-3457,PAYLOAD,2023-02-18 16:07:13,15.0883974,0.0001483,53.2156,274.6351,82.9735,277.1426,0.00027922,4.159e-05,0.0,0 STARLINK-3457,1 51754U 22016AS  23049.67168728  .00004159  00000-0  27922-3 0  9990,2 51754  53.2156 274.6351 0001483  82.9735 277.1426 15.08839740 56481,6917.881,95.438,540.772,538.72,0.0
51754.0,STARLINK-3457,PAYLOAD,2023-02-19 14:22:37,15.08848434,0.0001507,53.2142,270.4733,84.5785,275.5379,0.00031715,4.764e-05,0.0,0 STARLINK-3457,1 51754U 22016AS  23050.59904364  .00004764  00000-0  31715-3 0  9994,2 51754  53.2142 270.4733 0001507  84.5785 275.5379 15.08848434 55516,6917.855,95.437,540.762,538.677,0.0
51754.0,STARLINK-3457,PAYLOAD,2023-02-19 23:54:55,15.08853941,0.0001424,53.2131,268.6884,85.7758,274.3397,0.00026046,3.861e-05,0.0,0 STARLINK-3457,1 51754U 22016AS  23050.99647846  .00003861  00000-0  26046-3 0  9995,2 51754  53.2131 268.6884 0001424  85.7758 274.3397 15.08853941 56686,6917.838,95.437,540.688,538.718,0.0
51754.0,STARLINK-3457,PAYLOAD,2023-02-20 07:51:51,15.08846238,0.000164,53.213,267.2017,80.4866,279.6311,7.6638e-05,9.32e-06,0.0,0 STARLINK-3457,1 51754U 22016AS  23051.32768051  .00000932  00000-0  76638-4 0  9994,2 51754  53.2130 267.2017 0001640  80.4866 279.6311 15.08846238 56731,6917.861,95.437,540.861,538.592,0.0
51754.0,STARLINK-3457,PAYLOAD,2023-02-20 14:13:24,15.08847272,0.0001617,53.2128,266.012,81.2575,278.86,6.734e-05,7.84e-06,0.0,0 STARLINK-3457,1 51754U 22016AS  23051.59263948  .00000784  00000-0  67340-4 0  9993,2 51754  53.2128 266.0120 0001617  81.2575 278.8600 15.08847272 55662,6917.858,95.437,540.842,538.605,0.0
51754.0,STARLINK-3457,PAYLOAD,2023-02-21 14:04:11,15.08840036,0.0001372,53.2131,261.5502,79.791,280.3237,3.2936e-05,2.36e-06,0.0,0 STARLINK-3457,1 51754U 22016AS  23052.58624060  .00000236  00000-0  32936-4 0  9994,2 51754  53.2131 261.5502 0001372  79.7910 280.3237 15.08840036 56928,6917.88,95.438,540.694,538.796,0.0
51754.0,STARLINK-3457,PAYLOAD,2023-02-21 20:25:43,15.08843494,0.0001353,53.213,260.3603,82.6389,277.4756,9.202e-05,1.177e-05,0.0,0 STARLINK-3457,1 51754U 22016AS  23052.85119917  .00001177  00000-0  92020-4 0  9999,2 51754  53.2130 260.3603 0001353  82.6389 277.4756 15.08843494 55853,6917.87,95.437,540.671,538.799,0.0
51754.0,STARLINK-3457,PAYLOAD,2023-02-22 01:11:52,15.08847201,0.0001342,53.2135,259.4684,82.2502,277.8643,0.00020347,2.952e-05,0.0,0 STARLINK-3457,1 51754U 22016AS  23053.04991777  .00002952  00000-0  20347-3 0  9997,2 51754  53.2135 259.4684 0001342  82.2502 277.8643 15.08847201 55889,6917.858,95.437,540.652,538.795,0.0
51754.0,STARLINK-3457,PAYLOAD,2023-02-22 18:41:08,15.08834264,0.0001339,53.2142,256.1969,84.1195,275.9949,3.6138e-05,2.87e-06,0.0,0 STARLINK-3457,1 51754U 22016AS  23053.77856530  .00000287  00000-0  36138-4 0  9999,2 51754  53.2142 256.1969 0001339  84.1195 275.9949 15.08834264 57102,6917.898,95.438,540.689,538.837,0.0
51754.0,STARLINK-3457,PAYLOAD,2023-02-22 20:16:31,15.08836514,0.000137,53.2144,255.8993,83.512,276.6028,6.7653e-06,-1.8e-06,0.0,0 STARLINK-3457,1 51754U 22016AS  23053.84480421 -.00000180  00000-0  67653-5 0  9999,2 51754  53.2144 255.8993 0001370  83.5120 276.6028 15.08836514 56007,6917.891,95.438,540.704,538.808,0.0
51754.0,STARLINK-3457,PAYLOAD,2023-02-23 05:48:49,15.08837453,0.0001381,53.2147,254.1148,84.4818,275.6332,1.3675e-05,-7e-07,0.0,0 STARLINK-3457,1 51754U 22016AS  23054.24224394 -.00000070  00000-0  13675-4 0  9991,2 51754  53.2147 254.1148 0001381  84.4818 275.6332 15.08837453 56066,6917.888,95.438,540.709,538.798,0.0
51754.0,STARLINK-3457,PAYLOAD,2023-02-23 20:07:17,15.08845376,0.000118,53.2142,251.4384,80.2875,279.825,0.00019959,2.89e-05,0.0,0 STARLINK-3457,1 51754U 22016AS  23054.83840041  .00002890  00000-0  19959-3 0  9990,2 51754  53.2142 251.4384 0001180  80.2875 279.8250 15.08845376 56155,6917.864,95.437,540.545,538.913,0.0
51754.0,STARLINK-3457,PAYLOAD,2023-02-23 23:18:03,15.08849119,0.0001267,53.2141,250.8434,80.7495,279.364,0.00020888,3.039e-05,0.0,0 STARLINK-3457,1 51754U 22016AS  23054.97087850  .00003039  00000-0  20888-3 0  9995,2 51754  53.2141 250.8434 0001267  80.7495 279.3640 15.08849119 57284,6917.853,95.437,540.594,538.841,0.0
51754.0,STARLINK-3457,PAYLOAD,2023-02-24 05:39:36,15.08837458,0.0001186,53.2144,249.6542,88.3531,271.7596,1.5018e-05,-4.9e-07,0.0,0 STARLINK-3457,1 51754U 22016AS  23055.23584336 -.00000049  00000-0  15018-4 0  9995,2 51754  53.2144 249.6542 0001186  88.3531 271.7596 15.08837458 57322,6917.888,95.438,540.574,538.933,0.0
51754.0,STARLINK-3457,PAYLOAD,2023-02-24 19:58:05,15.08839746,0.0001245,53.2144,246.9778,89.9237,270.1898,9.811e-05,1.274e-05,0.0,0 STARLINK-3457,1 51754U 22016AS  23055.83200443  .00001274  00000-0  98110-4 0  9999,2 51754  53.2144 246.9778 0001245  89.9237 270.1898 15.08839746 56306,6917.881,95.438,540.607,538.885,0.0
51754.0,STARLINK-3457,PAYLOAD,2023-02-25 05:30:24,15.08838527,0.0001236,53.2144,245.1932,87.4156,272.6978,3.6002e-05,2.85e-06,0.0,0 STARLINK-3457,1 51754U 22016AS  23056.22944476  .00000285  00000-0  36002-4 0  9997,2 51754  53.2144 245.1932 0001236  87.4156 272.6978 15.08838527 56360,6917.885,95.438,540.605,538.895,0.0
51754.0,STARLINK-3457,PAYLOAD,2023-02-25 18:13:29,15.08838788,0.0001248,53.2144,242.8145,88.2786,271.8349,6.3654e-05,7.25e-06,0.0,0 STARLINK-3457,1 51754U 22016AS  23056.75936604  .00000725  00000-0  63654-4 0  9991,2 51754  53.2144 242.8145 0001248  88.2786 271.8349 15.08838788 57555,6917.884,95.438,540.612,538.886,0.0
51754.0,STARLINK-3457,PAYLOAD,2023-02-25 21:24:15,15.08841948,0.0001252,53.2145,242.2198,88.5725,271.541,0.00012635,1.724e-05,0.0,0 STARLINK-3457,1 51754U 22016AS  23056.89184527  .00001724  00000-0  12635-3 0  9997,2 51754  53.2145 242.2198 0001252  88.5725 271.5410 15.08841948 56466,6917.874,95.437,540.606,538.873,0.0
51754.0,STARLINK-3457,PAYLOAD,2023-02-26 11:42:43,15.08842332,0.0001251,53.2146,239.5432,88.7837,271.3298,0.00021194,3.087e-05,0.0,0 STARLINK-3457,1 51754U 22016AS  23057.48800656  .00003087  00000-0  21194-3 0  9995,2 51754  53.2146 239.5432 0001251  88.7837 271.3298 15.08842332 56552,6917.873,95.437,540.604,538.873,0.0
51754.0,STARLINK-3457,PAYLOAD,2023-02-26 19:39:39,15.08852301,0.000124,53.2146,238.0564,88.672,271.4414,0.00036295,5.495e-05,0.0,0 STARLINK-3457,1 51754U 22016AS  23057.81920220  .00005495  00000-0  36295-3 0  9995,2 51754  53.2146 238.0564 0001240  88.6720 271.4414 15.08852301 57717,6917.843,95.437,540.566,538.85,0.0
